OBJECT_NAME,OBJECT_ID,EPOCH,MEAN_MOTION,ECCENTRICITY,INCLINATION,RA_OF_ASC_NODE,ARG_OF_PERICENTER,MEAN_ANOMALY,EPHEMERIS_TYPE,CLASSIFICATION_TYPE,NORAD_CAT_ID,ELEMENT_SET_NO,REV_AT_EPOCH,BSTAR,MEAN_MOTION_DOT,MEAN_MOTION_DDOT
STARLINK-37232,2026-133H,2026-07-07T10:00:05.000256,15.49295485,.0001333,53.1600,221.7754,84.8398,218.6057,0,U,69515,999,512,.46645E-3,.25566E-3,0
STARLINK-37323,2026-133J,2026-07-07T10:00:05.000256,15.56338802,.0001022,53.1597,220.9553,91.3308,257.0027,0,U,69516,999,512,-.40217E-1,-.2504589E-1,0
STARLINK-37357,2026-133K,2026-07-07T03:04:54.909120,15.49335302,.0000895,53.1588,223.4215,100.0723,260.0387,0,U,69517,999,516,.6277E-3,.34649E-3,0
STARLINK-37408,2026-133L,2026-07-07T10:00:05.000256,15.49280448,.0001304,53.1597,221.3085,37.1148,136.6421,0,U,69518,999,512,.76258E-3,.4215E-3,0
STARLINK-37570,2026-133M,2026-07-07T10:00:05.000256,15.49294505,.0001144,53.1601,221.8020,77.0387,211.5556,0,U,69519,999,512,.4972E-3,.27286E-3,0
STARLINK-37510,2026-133N,2026-07-07T10:00:05.000256,15.49292357,.0000797,53.1601,221.7509,101.7228,212.8368,0,U,69520,999,512,.52326E-3,.28743E-3,0
STARLINK-37586,2026-133P,2026-07-07T10:00:05.000256,15.55123048,.0000588,53.1604,220.8202,81.0242,330.8272,0,U,69521,999,512,-.417E-1,-.2534928E-1,0
STARLINK-37379,2026-133Q,2026-07-07T10:00:05.000256,15.49325191,.0002027,53.1597,221.4412,69.2002,37.3229,0,U,69522,999,517,.7253E-3,.40121E-3,0
STARLINK-37429,2026-133R,2026-07-07T00:00:02.998944,15.49310165,.0001351,53.1597,223.8533,62.6652,29.5785,0,U,69523,999,510,.1406E-2,.78539E-3,0
STARLINK-37352,2026-133S,2026-07-07T10:00:05.000256,15.49296504,.0001111,53.1599,221.4237,73.5426,40.7740,0,U,69524,999,517,.45982E-3,.25196E-3,0
STARLINK-37490,2026-133T,2026-07-07T10:00:05.000256,15.49252965,.0001109,53.1603,220.9568,37.6409,305.9064,0,U,69525,999,517,.73314E-3,.40457E-3,0
STARLINK-37438,2026-133U,2026-07-07T10:00:05.000256,15.49299007,.0001093,53.1600,221.5808,57.2640,338.7320,0,U,69526,999,517,.38358E-3,.20934E-3,0
STARLINK-37484,2026-133V,2026-07-07T10:00:05.000256,15.49589833,.0001675,53.1603,220.8636,110.3259,279.1900,0,U,69527,999,517,-.99466E-2,-.523362E-2,0
STARLINK-37523,2026-133W,2026-07-07T10:00:05.000256,15.49302044,.0001274,53.1598,221.3901,68.2256,61.4923,0,U,69528,999,517,.43684E-3,.23915E-3,0
STARLINK-37369,2026-133X,2026-07-07T10:00:05.000256,15.49300770,.0000784,53.1597,221.3488,88.4134,60.9194,0,U,69529,999,517,.45616E-3,.24995E-3,0
STARLINK-37670,2026-133Y,2026-07-07T10:00:05.000256,15.49299527,.0000872,53.1600,221.5166,67.9017,357.9105,0,U,69530,999,517,.39377E-3,.21504E-3,0
STARLINK-37897,2026-133Z,2026-07-07T10:00:05.000256,15.49238412,.0001067,53.1601,220.8414,27.7259,10.5115,0,U,69531,999,512,.77463E-3,.42762E-3,0
STARLINK-37933,2026-133AA,2026-07-07T10:00:05.000256,15.44325308,.0000728,53.1599,221.2014,65.6336,152.7456,0,U,69532,999,512,-.51827E-1,-.2144461E-1,0
STARLINK-37890,2026-133AB,2026-07-07T10:00:05.000256,15.42458528,.0001074,53.1609,221.0609,62.6195,225.6134,0,U,69533,999,512,-.73444E-1,-.2864977E-1,0
STARLINK-37407,2026-133AC,2026-07-07T10:00:05.000256,15.44125841,.0001138,53.1597,220.9156,76.6420,282.6460,0,U,69534,999,517,-.67266E-1,-.2733762E-1,0
STARLINK-37888,2026-133AD,2026-07-07T10:00:05.000256,15.41509133,.0001578,53.1607,220.9592,55.1757,281.4560,0,U,69535,999,512,-.74122E-1,-.2807773E-1,0
STARLINK-37889,2026-133AE,2026-07-07T10:00:05.000256,15.49306080,.000104,53.1599,221.8237,71.6027,207.3452,0,U,69536,999,512,.50924E-3,.27972E-3,0
2026-134A,2026-134A,2026-07-07T05:02:54.455136,15.09410912,.0015453,97.7000,258.3925,198.4404,161.6266,0,U,69538,999,333,.27467E-3,.4337E-4,0
2026-134B,2026-134B,2026-07-07T11:21:25.344000,15.09570100,.0015556,97.6977,258.6549,199.8466,160.2160,0,U,69539,999,336,.25544E-3,.4047E-4,0
2026-134C,2026-134C,2026-07-07T11:20:45.035808,15.09602794,.0014984,97.6984,258.6571,201.0779,158.9833,0,U,69540,999,336,.2502E-3,.3965E-4,0
2026-134D,2026-134D,2026-07-07T03:22:18.062976,15.09657868,.0016005,97.7021,258.3361,202.0112,158.0431,0,U,69541,999,331,.26813E-3,.4262E-4,0
2026-134E,2026-134E,2026-07-07T03:21:50.452992,15.09679581,.0015736,97.7040,258.3417,202.6960,157.3574,0,U,69542,999,331,.266E-3,.423E-4,0
2026-134F,2026-134F,2026-07-07T06:31:45.835392,15.09726217,.0015015,97.6992,258.4627,203.7729,156.2808,0,U,69543,999,333,.25962E-3,.4131E-4,0
2026-134G,2026-134G,2026-07-07T03:19:07.380768,15.09810240,.0015476,97.7038,258.3433,205.1485,154.8992,0,U,69544,999,331,.25975E-3,.4143E-4,0
