STARLINK-37232          
1 69515U 26133H   26188.41672454  .00025566  00000+0  46645-3 0  9990
2 69515  53.1600 221.7754 0001333  84.8398 218.6057 15.49295485  5120
STARLINK-37323          
1 69516U 26133J   26188.41672454 -.02504589  00000+0 -40217-1 0  9999
2 69516  53.1597 220.9553 0001022  91.3308 257.0027 15.56338802  5126
STARLINK-37357          
1 69517U 26133K   26188.12841330  .00034649  00000+0  62770-3 0  9990
2 69517  53.1588 223.4215 0000895 100.0723 260.0387 15.49335302  5167
STARLINK-37408          
1 69518U 26133L   26188.41672454  .00042150  00000+0  76258-3 0  9994
2 69518  53.1597 221.3085 0001304  37.1148 136.6421 15.49280448  5120
STARLINK-37570          
1 69519U 26133M   26188.41672454  .00027286  00000+0  49720-3 0  9992
2 69519  53.1601 221.8020 0001144  77.0387 211.5556 15.49294505  5122
STARLINK-37510          
1 69520U 26133N   26188.41672454  .00028743  00000+0  52326-3 0  9999
2 69520  53.1601 221.7509 0000797 101.7228 212.8368 15.49292357  5125
STARLINK-37586          
1 69521U 26133P   26188.41672454 -.02534928  00000+0 -41700-1 0  9993
2 69521  53.1604 220.8202 0000588  81.0242 330.8272 15.55123048  5125
STARLINK-37379          
1 69522U 26133Q   26188.41672454  .00040121  00000+0  72530-3 0  9994
2 69522  53.1597 221.4412 0002027  69.2002  37.3229 15.49325191  5171
STARLINK-37429          
1 69523U 26133R   26188.00003471  .00078539  00000+0  14060-2 0  9994
2 69523  53.1597 223.8533 0001351  62.6652  29.5785 15.49310165  5107
STARLINK-37352          
1 69524U 26133S   26188.41672454  .00025196  00000+0  45982-3 0  9992
2 69524  53.1599 221.4237 0001111  73.5426  40.7740 15.49296504  5172
STARLINK-37490          
1 69525U 26133T   26188.41672454  .00040457  00000+0  73314-3 0  9990
2 69525  53.1603 220.9568 0001109  37.6409 305.9064 15.49252965  5177
STARLINK-37438          
1 69526U 26133U   26188.41672454  .00020934  00000+0  38358-3 0  9998
2 69526  53.1600 221.5808 0001093  57.2640 338.7320 15.49299007  5173
STARLINK-37484          
1 69527U 26133V   26188.41672454 -.00523362  00000+0 -99466-2 0  9990
2 69527  53.1603 220.8636 0001675 110.3259 279.1900 15.49589833  5172
STARLINK-37523          
1 69528U 26133W   26188.41672454  .00023915  00000+0  43684-3 0  9990
2 69528  53.1598 221.3901 0001274  68.2256  61.4923 15.49302044  5174
STARLINK-37369          
1 69529U 26133X   26188.41672454  .00024995  00000+0  45616-3 0  9997
2 69529  53.1597 221.3488 0000784  88.4134  60.9194 15.49300770  5176
STARLINK-37670          
1 69530U 26133Y   26188.41672454  .00021504  00000+0  39377-3 0  9999
2 69530  53.1600 221.5166 0000872  67.9017 357.9105 15.49299527  5176
STARLINK-37897          
1 69531U 26133Z   26188.41672454  .00042762  00000+0  77463-3 0  9997
2 69531  53.1601 220.8414 0001067  27.7259  10.5115 15.49238412  5129
STARLINK-37933          
1 69532U 26133AA  26188.41672454 -.02144461  00000+0 -51827-1 0  9995
2 69532  53.1599 221.2014 0000728  65.6336 152.7456 15.44325308  5120
STARLINK-37890          
1 69533U 26133AB  26188.41672454 -.02864977  00000+0 -73444-1 0  9996
2 69533  53.1609 221.0609 0001074  62.6195 225.6134 15.42458528  5128
STARLINK-37407          
1 69534U 26133AC  26188.41672454 -.02733762  00000+0 -67266-1 0  9999
2 69534  53.1597 220.9156 0001138  76.6420 282.6460 15.44125841  5178
STARLINK-37888          
1 69535U 26133AD  26188.41672454 -.02807773  00000+0 -74122-1 0  9993
2 69535  53.1607 220.9592 0001578  55.1757 281.4560 15.41509133  5128
STARLINK-37889          
1 69536U 26133AE  26188.41672454  .00027972  00000+0  50924-3 0  9991
2 69536  53.1599 221.8237 0001040  71.6027 207.3452 15.49306080  5123
2026-134A               
1 69538U 26134A   26188.21035249  .00004337  00000+0  27467-3 0  9993
2 69538  97.7000 258.3925 0015453 198.4404 161.6266 15.09410912  3337
2026-134B               
1 69539U 26134B   26188.47321000  .00004047  00000+0  25544-3 0  9997
2 69539  97.6977 258.6549 0015556 199.8466 160.2160 15.09570100  3369
2026-134C               
1 69540U 26134C   26188.47274347  .00003965  00000+0  25020-3 0  9997
2 69540  97.6984 258.6571 0014984 201.0779 158.9833 15.09602794  3367
2026-134D               
1 69541U 26134D   26188.14048684  .00004262  00000+0  26813-3 0  9997
2 69541  97.7021 258.3361 0016005 202.0112 158.0431 15.09657868  3315
2026-134E               
1 69542U 26134E   26188.14016728  .00004230  00000+0  26600-3 0  9991
2 69542  97.7040 258.3417 0015736 202.6960 157.3574 15.09679581  3312
2026-134F               
1 69543U 26134F   26188.27205828  .00004131  00000+0  25962-3 0  9997
2 69543  97.6992 258.4627 0015015 203.7729 156.2808 15.09726217  3336
2026-134G               
1 69544U 26134G   26188.13827987  .00004143  00000+0  25975-3 0  9996
2 69544  97.7038 258.3433 0015476 205.1485 154.8992 15.09810240  3315
